{"type": "FeatureCollection", "features": [ {"type": "Feature", "properties": {"norad_id": 34400, "name": "COSMOS 2251 DEB", "group": "cosmos-2251-debris", "lat": -56.62378089235235, "lon": -126.69421261079107, "alt_km": 413.28047231704477, "timestamp": "2025-12-10T21:43:22.485309+00:00", "meta": {"OBJECT_NAME": "COSMOS 2251 DEB", "OBJECT_ID": "1993-036QR", "EPOCH": "2025-12-10T12:57:22.466304", "MEAN_MOTION": 15.52100983, "ECCENTRICITY": 0.00057114, "INCLINATION": 73.966, "RA_OF_ASC_NODE": 28.2287, "ARG_OF_PERICENTER": 269.2815, "MEAN_ANOMALY": 90.7744, "EPHEMERIS_TYPE": 0, "CLASSIFICATION_TYPE": "U", "NORAD_CAT_ID": 34400, "ELEMENT_SET_NO": 999, "REV_AT_EPOCH": 89940, "BSTAR": 0.0046527438, "MEAN_MOTION_DOT": 0.00291876, "MEAN_MOTION_DDOT": 0}, "tle": {"line1": "1 34400U 93036QR  25344.53984336  .00291876  00000+0  46527-2 0  9999", "line2": "2 34400  73.9660  28.2287 0005711 269.2815  90.7744 15.52100983899405"}}, "geometry": {"type": "Point", "coordinates": [-126.69421261079107, -56.62378089235235]}}, {"type": "Feature", "properties": {"norad_id": 34409, "name": "COSMOS 2251 DEB", "group": "cosmos-2251-debris", "lat": 50.9394604605303, "lon": -29.06371944304295, "alt_km": 644.9505018605987, "timestamp": "2025-12-10T21:43:22.485319+00:00", "meta": {"OBJECT_NAME": "COSMOS 2251 DEB", "OBJECT_ID": "1993-036RA", "EPOCH": "2025-12-10T15:42:02.401344", "MEAN_MOTION": 14.58019012, "ECCENTRICITY": 0.00797498, "INCLINATION": 74.0642, "RA_OF_ASC_NODE": 310.7983, "ARG_OF_PERICENTER": 25.6783, "MEAN_ANOMALY": 151.2638, "EPHEMERIS_TYPE": 0, "CLASSIFICATION_TYPE": "U", "NORAD_CAT_ID": 34409, "ELEMENT_SET_NO": 999, "REV_AT_EPOCH": 89162, "BSTAR": 0.00043949298, "MEAN_MOTION_DOT": 2.08e-05, "MEAN_MOTION_DDOT": 0}, "tle": {"line1": "1 34409U 93036RA  25344.65419446  .00002080  00000+0  43949-3 0  9999", "line2": "2 34409  74.0642 310.7983 0079749  25.6783 151.2638 14.58019012891626"}}, "geometry": {"type": "Point", "coordinates": [-29.06371944304295, 50.9394604605303]}}, {"type": "Feature", "properties": {"norad_id": 34410, "name": "COSMOS 2251 DEB", "group": "cosmos-2251-debris", "lat": 47.80524945166169, "lon": -75.56693025618839, "alt_km": 497.40433083963126, "timestamp": "2025-12-10T21:43:22.485329+00:00", "meta": {"OBJECT_NAME": "COSMOS 2251 DEB", "OBJECT_ID": "1993-036RB", "EPOCH": "2025-12-09T18:45:14.908320", "MEAN_MOTION": 15.18456802, "ECCENTRICITY": 0.00211208, "INCLINATION": 73.7385, "RA_OF_ASC_NODE": 268.0424, "ARG_OF_PERICENTER": 109.8067, "MEAN_ANOMALY": 280.6185, "EPHEMERIS_TYPE": 0, "CLASSIFICATION_TYPE": "U", "NORAD_CAT_ID": 34410, "ELEMENT_SET_NO": 999, "REV_AT_EPOCH": 89729, "BSTAR": 0.0034496141, "MEAN_MOTION_DOT": 0.00072173, "MEAN_MOTION_DDOT": 0}, "tle": {"line1": "1 34410U 93036RB  25343.78142255  .00072173  00000+0  34496-2 0  9991", "line2": "2 34410  73.7385 268.0424 0021120 109.8067 280.6185 15.18456802897295"}}, "geometry": {"type": "Point", "coordinates": [-75.56693025618839, 47.80524945166169]}}, {"type": "Feature", "properties": {"norad_id": 34412, "name": "COSMOS 2251 DEB", "group": "cosmos-2251-debris", "lat": -25.968914779504345, "lon": -40.00075520633305, "alt_km": 739.3009793212177, "timestamp": "2025-12-10T21:43:22.485340+00:00", "meta": {"OBJECT_NAME": "COSMOS 2251 DEB", "OBJECT_ID": "1993-036RD", "EPOCH": "2025-12-10T08:34:24.760128", "MEAN_MOTION": 14.47089283, "ECCENTRICITY": 0.01871146, "INCLINATION": 73.9488, "RA_OF_ASC_NODE": 329.0899, "ARG_OF_PERICENTER": 64.7312, "MEAN_ANOMALY": 297.3105, "EPHEMERIS_TYPE": 0, "CLASSIFICATION_TYPE": "U", "NORAD_CAT_ID": 34412, "ELEMENT_SET_NO": 999, "REV_AT_EPOCH": 87616, "BSTAR": 0.0017631553, "MEAN_MOTION_DOT": 7.982e-05, "MEAN_MOTION_DDOT": 0}, "tle": {"line1": "1 34412U 93036RD  25344.35723102  .00007982  00000+0  17632-2 0  9992", "line2": "2 34412  73.9488 329.0899 0187114  64.7312 297.3105 14.47089283876161"}}, "geometry": {"type": "Point", "coordinates": [-40.00075520633305, -25.968914779504345]}}, {"type": "Feature", "properties": {"norad_id": 34413, "name": "COSMOS 2251 DEB", "group": "cosmos-2251-debris", "lat": -42.93948470073158, "lon": 103.66355685270331, "alt_km": 833.1616272144156, "timestamp": "2025-12-10T21:43:22.485350+00:00", "meta": {"OBJECT_NAME": "COSMOS 2251 DEB", "OBJECT_ID": "1993-036RE", "EPOCH": "2025-12-10T13:06:02.518272", "MEAN_MOTION": 14.29071076, "ECCENTRICITY": 0.00908666, "INCLINATION": 74.0312, "RA_OF_ASC_NODE": 268.8625, "ARG_OF_PERICENTER": 345.6881, "MEAN_ANOMALY": 192.7239, "EPHEMERIS_TYPE": 0, "CLASSIFICATION_TYPE": "U", "NORAD_CAT_ID": 34413, "ELEMENT_SET_NO": 999, "REV_AT_EPOCH": 87099, "BSTAR": 0.0026006154, "MEAN_MOTION_DOT": 6.868e-05, "MEAN_MOTION_DDOT": 0}, "tle": {"line1": "1 34413U 93036RE  25344.54586248  .00006868  00000+0  26006-2 0  9999", "line2": "2 34413  74.0312 268.8625 0090866 345.6881 192.7239 14.29071076870998"}}, "geometry": {"type": "Point", "coordinates": [103.66355685270331, -42.93948470073158]}}, {"type": "Feature", "properties": {"norad_id": 34420, "name": "COSMOS 2251 DEB", "group": "cosmos-2251-debris", "lat": 56.260129867628756, "lon": 132.88964991772454, "alt_km": 734.6220352069968, "timestamp": "2025-12-10T21:43:22.485360+00:00", "meta": {"OBJECT_NAME": "COSMOS 2251 DEB", "OBJECT_ID": "1993-036RM", "EPOCH": "2025-12-10T14:59:42.199872", "MEAN_MOTION": 14.6828771, "ECCENTRICITY": 0.01067232, "INCLINATION": 74.0335, "RA_OF_ASC_NODE": 108.0499, "ARG_OF_PERICENTER": 229.6762, "MEAN_ANOMALY": 149.3385, "EPHEMERIS_TYPE": 0, "CLASSIFICATION_TYPE": "U", "NORAD_CAT_ID": 34420, "ELEMENT_SET_NO": 999, "REV_AT_EPOCH": 89739, "BSTAR": 0.00041764282, "MEAN_MOTION_DOT": 2.592e-05, "MEAN_MOTION_DDOT": 0}, "tle": {"line1": "1 34420U 93036RM  25344.62479398  .00002592  00000+0  41764-3 0  9992", "line2": "2 34420  74.0335 108.0499 0106723 229.6762 149.3385 14.68287710897394"}}, "geometry": {"type": "Point", "coordinates": [132.88964991772454, 56.260129867628756]}}, {"type": "Feature", "properties": {"norad_id": 34425, "name": "COSMOS 2251 DEB", "group": "cosmos-2251-debris", "lat": -8.080284420609471, "lon": -119.63543692960808, "alt_km": 672.3996936807271, "timestamp": "2025-12-10T21:43:22.485370+00:00", "meta": {"OBJECT_NAME": "COSMOS 2251 DEB", "OBJECT_ID": "1993-036RS", "EPOCH": "2025-12-10T14:17:45.425760", "MEAN_MOTION": 14.62109192, "ECCENTRICITY": 0.00249425, "INCLINATION": 74.02, "RA_OF_ASC_NODE": 58.6258, "ARG_OF_PERICENTER": 185.6919, "MEAN_ANOMALY": 174.3968, "EPHEMERIS_TYPE": 0, "CLASSIFICATION_TYPE": "U", "NORAD_CAT_ID": 34425, "ELEMENT_SET_NO": 999, "REV_AT_EPOCH": 88709, "BSTAR": 0.00094392883, "MEAN_MOTION_DOT": 4.738e-05, "MEAN_MOTION_DDOT": 0}, "tle": {"line1": "1 34425U 93036RS  25344.59566465  .00004738  00000+0  94393-3 0  9995", "line2": "2 34425  74.0200  58.6258 0024942 185.6919 174.3968 14.62109192887092"}}, "geometry": {"type": "Point", "coordinates": [-119.63543692960808, -8.080284420609471]}}, {"type": "Feature", "properties": {"norad_id": 34429, "name": "COSMOS 2251 DEB", "group": "cosmos-2251-debris", "lat": 72.70224263492645, "lon": -120.60684620995453, "alt_km": 435.54628055257126, "timestamp": "2025-12-10T21:43:22.485381+00:00", "meta": {"OBJECT_NAME": "COSMOS 2251 DEB", "OBJECT_ID": "1993-036RW", "EPOCH": "2025-12-10T12:08:01.998816", "MEAN_MOTION": 15.40292779, "ECCENTRICITY": 0.00067875, "INCLINATION": 73.9712, "RA_OF_ASC_NODE": 172.8672, "ARG_OF_PERICENTER": 16.6969, "MEAN_ANOMALY": 12.0165, "EPHEMERIS_TYPE": 0, "CLASSIFICATION_TYPE": "U", "NORAD_CAT_ID": 34429, "ELEMENT_SET_NO": 999, "REV_AT_EPOCH": 89414, "BSTAR": 0.0065167846, "MEAN_MOTION_DOT": 0.00272351, "MEAN_MOTION_DDOT": 0}, "tle": {"line1": "1 34429U 93036RW  25344.50557869  .00272351  00000+0  65168-2 0  9993", "line2": "2 34429  73.9712 172.8672 0006787  16.6969  12.0165 15.40292779894148"}}, "geometry": {"type": "Point", "coordinates": [-120.60684620995453, 72.70224263492645]}}, {"type": "Feature", "properties": {"norad_id": 34430, "name": "COSMOS 2251 DEB", "group": "cosmos-2251-debris", "lat": 57.30385334747021, "lon": 100.29383875143492, "alt_km": 762.6138257291668, "timestamp": "2025-12-10T21:43:22.485391+00:00", "meta": {"OBJECT_NAME": "COSMOS 2251 DEB", "OBJECT_ID": "1993-036RX", "EPOCH": "2025-12-10T14:30:20.605824", "MEAN_MOTION": 14.39621855, "ECCENTRICITY": 0.00602761, "INCLINATION": 74.0523, "RA_OF_ASC_NODE": 307.3017, "ARG_OF_PERICENTER": 17.4561, "MEAN_ANOMALY": 342.8646, "EPHEMERIS_TYPE": 0, "CLASSIFICATION_TYPE": "U", "NORAD_CAT_ID": 34430, "ELEMENT_SET_NO": 999, "REV_AT_EPOCH": 87924, "BSTAR": 0.00084493153, "MEAN_MOTION_DOT": 2.672e-05, "MEAN_MOTION_DDOT": 0}, "tle": {"line1": "1 34430U 93036RX  25344.60440516  .00002672  00000+0  84493-3 0  9996", "line2": "2 34430  74.0523 307.3017 0060276  17.4561 342.8646 14.39621855879240"}}, "geometry": {"type": "Point", "coordinates": [100.29383875143492, 57.30385334747021]}}, {"type": "Feature", "properties": {"norad_id": 34431, "name": "COSMOS 2251 DEB", "group": "cosmos-2251-debris", "lat": 74.04033675131598, "lon": -88.2163838417909, "alt_km": 774.4859223756675, "timestamp": "2025-12-10T21:43:22.485401+00:00", "meta": {"OBJECT_NAME": "COSMOS 2251 DEB", "OBJECT_ID": "1993-036RY", "EPOCH": "2025-12-09T23:27:02.345472", "MEAN_MOTION": 14.28759324, "ECCENTRICITY": 0.0068412, "INCLINATION": 74.0746, "RA_OF_ASC_NODE": 180.2002, "ARG_OF_PERICENTER": 166.6572, "MEAN_ANOMALY": 193.6408, "EPHEMERIS_TYPE": 0, "CLASSIFICATION_TYPE": "U", "NORAD_CAT_ID": 34431, "ELEMENT_SET_NO": 999, "REV_AT_EPOCH": 87103, "BSTAR": 0.00077362486, "MEAN_MOTION_DOT": 1.973e-05, "MEAN_MOTION_DDOT": 0}, "tle": {"line1": "1 34431U 93036RY  25343.97711048  .00001973  00000+0  77362-3 0  9997", "line2": "2 34431  74.0746 180.2002 0068412 166.6572 193.6408 14.28759324871037"}}, "geometry": {"type": "Point", "coordinates": [-88.2163838417909, 74.04033675131598]}}]}